{"type": "FeatureCollection", "features": [ {"type": "Feature", "properties": {"norad_id": 34861, "name": "COSMOS 2251 DEB", "group": "cosmos-2251-debris", "lat": 19.11026348724573, "lon": -116.47884007108158, "alt_km": 561.0253832840335, "timestamp": "2025-12-03T17:47:51.113651+00:00", "meta": {"OBJECT_NAME": "COSMOS 2251 DEB", "OBJECT_ID": "1993-036ACF", "EPOCH": "2025-12-03T06:01:48.787104", "MEAN_MOTION": 15.01590814, "ECCENTRICITY": 0.0005956, "INCLINATION": 74.0186, "RA_OF_ASC_NODE": 70.2195, "ARG_OF_PERICENTER": 81.3794, "MEAN_ANOMALY": 309.1741, "EPHEMERIS_TYPE": 0, "CLASSIFICATION_TYPE": "U", "NORAD_CAT_ID": 34861, "ELEMENT_SET_NO": 999, "REV_AT_EPOCH": 87950, "BSTAR": 0.0032722, "MEAN_MOTION_DOT": 0.00042671, "MEAN_MOTION_DDOT": 0}, "tle": {"line1": "1 34861U 93036ACF 25337.25125911  .00042671  00000+0  32722-2 0  9996", "line2": "2 34861  74.0186  70.2195 0005956  81.3794 309.1741 15.01590814879509"}}, "geometry": {"type": "Point", "coordinates": [-116.47884007108158, 19.11026348724573]}}, {"type": "Feature", "properties": {"norad_id": 34874, "name": "COSMOS 2251 DEB", "group": "cosmos-2251-debris", "lat": 72.60829893827284, "lon": 156.31154202131745, "alt_km": 733.5412598549619, "timestamp": "2025-12-03T17:47:51.113662+00:00", "meta": {"OBJECT_NAME": "COSMOS 2251 DEB", "OBJECT_ID": "1993-036ACM", "EPOCH": "2025-12-03T07:32:24.014112", "MEAN_MOTION": 14.3622583, "ECCENTRICITY": 0.0051549, "INCLINATION": 74.039, "RA_OF_ASC_NODE": 91.0729, "ARG_OF_PERICENTER": 119.3072, "MEAN_ANOMALY": 275.1371, "EPHEMERIS_TYPE": 0, "CLASSIFICATION_TYPE": "U", "NORAD_CAT_ID": 34874, "ELEMENT_SET_NO": 999, "REV_AT_EPOCH": 86909, "BSTAR": 0.0014888, "MEAN_MOTION_DOT": 4.389e-05, "MEAN_MOTION_DDOT": 0}, "tle": {"line1": "1 34874U 93036ACM 25337.31416683  .00004389  00000+0  14888-2 0  9993", "line2": "2 34874  74.0390  91.0729 0051549 119.3072 275.1371 14.36225830869098"}}, "geometry": {"type": "Point", "coordinates": [156.31154202131745, 72.60829893827284]}}, {"type": "Feature", "properties": {"norad_id": 34875, "name": "COSMOS 2251 DEB", "group": "cosmos-2251-debris", "lat": 73.8528447436691, "lon": -103.72978679168293, "alt_km": 731.570165689619, "timestamp": "2025-12-03T17:47:51.113672+00:00", "meta": {"OBJECT_NAME": "COSMOS 2251 DEB", "OBJECT_ID": "1993-036ACN", "EPOCH": "2025-12-02T23:29:38.183424", "MEAN_MOTION": 14.48872152, "ECCENTRICITY": 0.00159602, "INCLINATION": 74.0432, "RA_OF_ASC_NODE": 176.5012, "ARG_OF_PERICENTER": 300.7833, "MEAN_ANOMALY": 130.3671, "EPHEMERIS_TYPE": 0, "CLASSIFICATION_TYPE": "U", "NORAD_CAT_ID": 34875, "ELEMENT_SET_NO": 999, "REV_AT_EPOCH": 87614, "BSTAR": 0.00050895794, "MEAN_MOTION_DOT": 1.901e-05, "MEAN_MOTION_DDOT": 0}, "tle": {"line1": "1 34875U 93036ACN 25336.97891416  .00001901  00000+0  50896-3 0  9993", "line2": "2 34875  74.0432 176.5012 0015960 300.7833 130.3671 14.48872152876145"}}, "geometry": {"type": "Point", "coordinates": [-103.72978679168293, 73.8528447436691]}}, {"type": "Feature", "properties": {"norad_id": 34878, "name": "COSMOS 2251 DEB", "group": "cosmos-2251-debris", "lat": 1.4488840078432117, "lon": 62.01370005278625, "alt_km": 860.297789526302, "timestamp": "2025-12-03T17:47:51.113683+00:00", "meta": {"OBJECT_NAME": "COSMOS 2251 DEB", "OBJECT_ID": "1993-036ACR", "EPOCH": "2025-12-01T14:17:05.154720", "MEAN_MOTION": 13.44171436, "ECCENTRICITY": 0.04352412, "INCLINATION": 73.9642, "RA_OF_ASC_NODE": 65.0008, "ARG_OF_PERICENTER": 50.7211, "MEAN_ANOMALY": 11.8748, "EPHEMERIS_TYPE": 0, "CLASSIFICATION_TYPE": "U", "NORAD_CAT_ID": 34878, "ELEMENT_SET_NO": 999, "REV_AT_EPOCH": 81123, "BSTAR": 0.00042153975, "MEAN_MOTION_DOT": 4.13e-06, "MEAN_MOTION_DDOT": 0}, "tle": {"line1": "1 34878U 93036ACR 25335.59519855  .00000413  00000+0  42154-3 0  9992", "line2": "2 34878  73.9642  65.0008 0435241  50.7211  11.8748 13.44171436811235"}}, "geometry": {"type": "Point", "coordinates": [62.01370005278625, 1.4488840078432117]}}, {"type": "Feature", "properties": {"norad_id": 34882, "name": "COSMOS 2251 DEB", "group": "cosmos-2251-debris", "lat": -19.51382727568556, "lon": -123.02444273660403, "alt_km": 643.4991301048003, "timestamp": "2025-12-03T17:47:51.113694+00:00", "meta": {"OBJECT_NAME": "COSMOS 2251 DEB", "OBJECT_ID": "1993-036ACV", "EPOCH": "2025-12-03T11:19:04.630368", "MEAN_MOTION": 14.61565557, "ECCENTRICITY": 0.0082423, "INCLINATION": 74.0468, "RA_OF_ASC_NODE": 243.3098, "ARG_OF_PERICENTER": 12.5896, "MEAN_ANOMALY": 347.7302, "EPHEMERIS_TYPE": 0, "CLASSIFICATION_TYPE": "U", "NORAD_CAT_ID": 34882, "ELEMENT_SET_NO": 999, "REV_AT_EPOCH": 88389, "BSTAR": 0.00032362, "MEAN_MOTION_DOT": 1.655e-05, "MEAN_MOTION_DDOT": 0}, "tle": {"line1": "1 34882U 93036ACV 25337.47158137  .00001655  00000+0  32362-3 0  9997", "line2": "2 34882  74.0468 243.3098 0082423  12.5896 347.7302 14.61565557883892"}}, "geometry": {"type": "Point", "coordinates": [-123.02444273660403, -19.51382727568556]}}, {"type": "Feature", "properties": {"norad_id": 34883, "name": "COSMOS 2251 DEB", "group": "cosmos-2251-debris", "lat": 3.4884709026575242, "lon": 80.47290576011284, "alt_km": 733.1276266683135, "timestamp": "2025-12-03T17:47:51.113704+00:00", "meta": {"OBJECT_NAME": "COSMOS 2251 DEB", "OBJECT_ID": "1993-036ACW", "EPOCH": "2025-12-03T06:11:49.903008", "MEAN_MOTION": 14.50906978, "ECCENTRICITY": 0.009512, "INCLINATION": 74.1992, "RA_OF_ASC_NODE": 80.3835, "ARG_OF_PERICENTER": 267.1357, "MEAN_ANOMALY": 91.8916, "EPHEMERIS_TYPE": 0, "CLASSIFICATION_TYPE": "U", "NORAD_CAT_ID": 34883, "ELEMENT_SET_NO": 999, "REV_AT_EPOCH": 86302, "BSTAR": 0.0065943, "MEAN_MOTION_DOT": 0.00027681, "MEAN_MOTION_DDOT": 0}, "tle": {"line1": "1 34883U 93036ACW 25337.25821647  .00027681  00000+0  65943-2 0  9994", "line2": "2 34883  74.1992  80.3835 0095120 267.1357  91.8916 14.50906978863027"}}, "geometry": {"type": "Point", "coordinates": [80.47290576011284, 3.4884709026575242]}}, {"type": "Feature", "properties": {"norad_id": 34884, "name": "COSMOS 2251 DEB", "group": "cosmos-2251-debris", "lat": 46.45518761366647, "lon": -122.78988559334032, "alt_km": 593.6956340241122, "timestamp": "2025-12-03T17:47:51.113715+00:00", "meta": {"OBJECT_NAME": "COSMOS 2251 DEB", "OBJECT_ID": "1993-036ACX", "EPOCH": "2025-12-03T07:47:10.508352", "MEAN_MOTION": 14.89278291, "ECCENTRICITY": 0.0002889, "INCLINATION": 74.0181, "RA_OF_ASC_NODE": 75.5944, "ARG_OF_PERICENTER": 139.1324, "MEAN_ANOMALY": 276.3447, "EPHEMERIS_TYPE": 0, "CLASSIFICATION_TYPE": "U", "NORAD_CAT_ID": 34884, "ELEMENT_SET_NO": 999, "REV_AT_EPOCH": 87665, "BSTAR": 0.0036657, "MEAN_MOTION_DOT": 0.00034875, "MEAN_MOTION_DDOT": 0}, "tle": {"line1": "1 34884U 93036ACX 25337.32442718  .00034875  00000+0  36657-2 0  9994", "line2": "2 34884  74.0181  75.5944 0002889 139.1324 276.3447 14.89278291876650"}}, "geometry": {"type": "Point", "coordinates": [-122.78988559334032, 46.45518761366647]}}, {"type": "Feature", "properties": {"norad_id": 34885, "name": "COSMOS 2251 DEB", "group": "cosmos-2251-debris", "lat": 4.910372307538733, "lon": 18.5537993347756, "alt_km": 726.8416424667312, "timestamp": "2025-12-03T17:47:51.113726+00:00", "meta": {"OBJECT_NAME": "COSMOS 2251 DEB", "OBJECT_ID": "1993-036ACY", "EPOCH": "2025-12-03T01:01:17.738688", "MEAN_MOTION": 14.5142198, "ECCENTRICITY": 0.00154658, "INCLINATION": 74.0311, "RA_OF_ASC_NODE": 201.2789, "ARG_OF_PERICENTER": 287.0539, "MEAN_ANOMALY": 197.0279, "EPHEMERIS_TYPE": 0, "CLASSIFICATION_TYPE": "U", "NORAD_CAT_ID": 34885, "ELEMENT_SET_NO": 999, "REV_AT_EPOCH": 87338, "BSTAR": 0.00082938921, "MEAN_MOTION_DOT": 3.288e-05, "MEAN_MOTION_DDOT": 0}, "tle": {"line1": "1 34885U 93036ACY 25337.04256642  .00003288  00000+0  82939-3 0  9992", "line2": "2 34885  74.0311 201.2789 0015465 287.0539 197.0279 14.51421980873389"}}, "geometry": {"type": "Point", "coordinates": [18.5537993347756, 4.910372307538733]}}, {"type": "Feature", "properties": {"norad_id": 34886, "name": "COSMOS 2251 DEB", "group": "cosmos-2251-debris", "lat": -15.466144602376287, "lon": -164.09573041376356, "alt_km": 444.0472333129683, "timestamp": "2025-12-03T17:47:51.113736+00:00", "meta": {"OBJECT_NAME": "COSMOS 2251 DEB", "OBJECT_ID": "1993-036ACZ", "EPOCH": "2025-12-02T21:33:25.254144", "MEAN_MOTION": 15.36781254, "ECCENTRICITY": 0.00310818, "INCLINATION": 73.9522, "RA_OF_ASC_NODE": 202.2947, "ARG_OF_PERICENTER": 28.5971, "MEAN_ANOMALY": 331.6931, "EPHEMERIS_TYPE": 0, "CLASSIFICATION_TYPE": "U", "NORAD_CAT_ID": 34886, "ELEMENT_SET_NO": 999, "REV_AT_EPOCH": 62847, "BSTAR": 0.0022652604, "MEAN_MOTION_DOT": 0.00083623, "MEAN_MOTION_DDOT": 0}, "tle": {"line1": "1 34886U 93036ACZ 25336.89820896  .00083623  00000+0  22653-2 0  9990", "line2": "2 34886  73.9522 202.2947 0031081  28.5971 331.6931 15.36781254628475"}}, "geometry": {"type": "Point", "coordinates": [-164.09573041376356, -15.466144602376287]}}, {"type": "Feature", "properties": {"norad_id": 34907, "name": "COSMOS 2251 DEB", "group": "cosmos-2251-debris", "lat": -15.953003892257952, "lon": -107.3473673442374, "alt_km": 472.3192974017302, "timestamp": "2025-12-03T17:47:51.113747+00:00", "meta": {"OBJECT_NAME": "COSMOS 2251 DEB", "OBJECT_ID": "1993-036ADC", "EPOCH": "2025-12-03T07:33:59.709024", "MEAN_MOTION": 15.36059766, "ECCENTRICITY": 0.0017302, "INCLINATION": 73.9746, "RA_OF_ASC_NODE": 68.8586, "ARG_OF_PERICENTER": 354.083, "MEAN_ANOMALY": 6.0168, "EPHEMERIS_TYPE": 0, "CLASSIFICATION_TYPE": "U", "NORAD_CAT_ID": 34907, "ELEMENT_SET_NO": 999, "REV_AT_EPOCH": 87828, "BSTAR": 0.0090238, "MEAN_MOTION_DOT": 0.00332594, "MEAN_MOTION_DDOT": 0}, "tle": {"line1": "1 34907U 93036ADC 25337.31527441  .00332594  00000+0  90238-2 0  9990", "line2": "2 34907  73.9746  68.8586 0017302 354.0830   6.0168 15.36059766878280"}}, "geometry": {"type": "Point", "coordinates": [-107.3473673442374, -15.953003892257952]}}]}